"CCSDS_OMM_VERS","COMMENT","CREATION_DATE","ORIGINATOR","OBJECT_NAME","OBJECT_ID","CENTER_NAME","REF_FRAME","TIME_SYSTEM","MEAN_ELEMENT_THEORY","EPOCH","MEAN_MOTION","ECCENTRICITY","INCLINATION","RA_OF_ASC_NODE","ARG_OF_PERICENTER","MEAN_ANOMALY","EPHEMERIS_TYPE","CLASSIFICATION_TYPE","NORAD_CAT_ID","ELEMENT_SET_NO","REV_AT_EPOCH","BSTAR","MEAN_MOTION_DOT","MEAN_MOTION_DDOT","SEMIMAJOR_AXIS","PERIOD","APOAPSIS","PERIAPSIS","OBJECT_TYPE","RCS_SIZE","COUNTRY_CODE","LAUNCH_DATE","SITE","DECAY_DATE","FILE","GP_ID","TLE_LINE0","TLE_LINE1","TLE_LINE2"
"2.0","GENERATED VIA SPACE-TRACK.ORG API","2022-04-24T22:26:12","18 SPCS","CARTOSAT 3","2019-081A","EARTH","TEME","UTC","SGP4","2022-04-24T18:27:51.030432","15.19213170","0.00140240","97.4028","177.4338","48.8503","79.4109","0","U","44804","999","13348","0.00020684000000","0.00004297","0.0000000000000","6886.354","94.786","517.877","498.562","PAYLOAD","LARGE","IND","2019-11-27","SRI",null,"3414238","201940070","0 CARTOSAT 3","1 44804U 19081A   22114.76934063  .00004297  00000-0  20684-3 0  9992","2 44804  97.4028 177.4338 0014024  48.8503  79.4109 15.19213170133483"
"2.0","GENERATED VIA SPACE-TRACK.ORG API","2022-04-25T06:16:12","18 SPCS","CARTOSAT 3","2019-081A","EARTH","TEME","UTC","SGP4","2022-04-25T02:03:54.822816","15.19214787","0.00139660","97.4029","177.7440","48.1338","11.1632","0","U","44804","999","13353","0.00019481000000","0.00004043","0.0000000000000","6886.349","94.786","517.832","498.597","PAYLOAD","LARGE","IND","2019-11-27","SRI",null,"3414621","201948243","0 CARTOSAT 3","1 44804U 19081A   22115.08605119  .00004043  00000-0  19481-3 0  9997","2 44804  97.4029 177.7440 0013966  48.1338  11.1632 15.19214787133539"
"2.0","GENERATED VIA SPACE-TRACK.ORG API","2022-04-25T14:16:11","18 SPCS","CARTOSAT 3","2019-081A","EARTH","TEME","UTC","SGP4","2022-04-25T11:50:05.150688","15.19217730","0.00139560","97.4025","178.1431","46.8064","77.3738","0","U","44804","999","13359","0.00019096000000","0.00003962","0.0000000000000","6886.341","94.786","517.816","498.595","PAYLOAD","LARGE","IND","2019-11-27","SRI",null,"3415128","201959503","0 CARTOSAT 3","1 44804U 19081A   22115.49311517  .00003962  00000-0  19096-3 0  9999","2 44804  97.4025 178.1431 0013956  46.8064  77.3738 15.19217730133598"
"2.0","GENERATED VIA SPACE-TRACK.ORG API","2022-04-25T18:05:35","18 SPCS","CARTOSAT 3","2019-081A","EARTH","TEME","UTC","SGP4","2022-04-25T11:50:05.150688","15.19217730","0.00139560","97.4025","178.1431","46.8064","77.3738","0","U","44804","999","13359","0.00019096000000","0.00003962","0.0000000000000","6886.341","94.786","517.816","498.595","PAYLOAD","LARGE","IND","2019-11-27","SRI",null,"3415659","201992072","0 CARTOSAT 3","1 44804U 19081A   22115.49311517  .00003962  00000-0  19096-3 0  9999","2 44804  97.4025 178.1431 0013956  46.8064  77.3738 15.19217730133598"
"2.0","GENERATED VIA SPACE-TRACK.ORG API","2022-04-25T22:16:11","18 SPCS","CARTOSAT 3","2019-081A","EARTH","TEME","UTC","SGP4","2022-04-25T19:46:57.822240","15.19219856","0.00139620","97.4024","178.4678","45.3876","88.8384","0","U","44804","999","13364","0.00018571000000","0.00003852","0.0000000000000","6886.334","94.785","517.814","498.584","PAYLOAD","LARGE","IND","2019-11-27","SRI",null,"3415721","201997193","0 CARTOSAT 3","1 44804U 19081A   22115.82428035  .00003852  00000-0  18571-3 0  9995","2 44804  97.4024 178.4678 0013962  45.3876  88.8384 15.19219856133646"
"2.0","GENERATED VIA SPACE-TRACK.ORG API","2022-04-26T02:53:38","18 SPCS","CARTOSAT 3","2019-081A","EARTH","TEME","UTC","SGP4","2022-04-25T19:46:57.822240","15.19219856","0.00139620","97.4024","178.4678","45.3876","88.8384","0","U","44804","999","13364","0.00018571000000","0.00003852","0.0000000000000","6886.334","94.785","517.814","498.584","PAYLOAD","LARGE","IND","2019-11-27","SRI",null,"3416090","202025547","0 CARTOSAT 3","1 44804U 19081A   22115.82428035  .00003852  00000-0  18571-3 0  9995","2 44804  97.4024 178.4678 0013962  45.3876  88.8384 15.19219856133646"
"2.0","GENERATED VIA SPACE-TRACK.ORG API","2022-04-26T06:26:11","18 SPCS","CARTOSAT 3","2019-081A","EARTH","TEME","UTC","SGP4","2022-04-26T03:27:00.780192","15.19222097","0.00139530","97.4025","178.7806","44.1140","36.2864","0","U","44804","999","13369","0.00018352000000","0.00003806","0.0000000000000","6886.327","94.785","517.801","498.584","PAYLOAD","LARGE","IND","2019-11-27","SRI",null,"3416094","202030730","0 CARTOSAT 3","1 44804U 19081A   22116.14375903  .00003806  00000-0  18352-3 0  9992","2 44804  97.4025 178.7806 0013953  44.1140  36.2864 15.19222097133690"
"2.0","GENERATED VIA SPACE-TRACK.ORG API","2022-04-26T14:16:12","18 SPCS","CARTOSAT 3","2019-081A","EARTH","TEME","UTC","SGP4","2022-04-26T11:29:19.531392","15.19224923","0.00139390","97.4024","179.1089","43.0440","68.0390","0","U","44804","999","13374","0.00018554000000","0.00003849","0.0000000000000","6886.319","94.785","517.783","498.585","PAYLOAD","LARGE","IND","2019-11-27","SRI",null,"3416610","202042775","0 CARTOSAT 3","1 44804U 19081A   22116.47869828  .00003849  00000-0  18554-3 0  9993","2 44804  97.4024 179.1089 0013939  43.0440  68.0390 15.19224923133745"
"2.0","GENERATED VIA SPACE-TRACK.ORG API","2022-04-26T18:18:49","18 SPCS","CARTOSAT 3","2019-081A","EARTH","TEME","UTC","SGP4","2022-04-26T11:29:19.531392","15.19224923","0.00139390","97.4024","179.1089","43.0440","68.0390","0","U","44804","999","13374","0.00018554000000","0.00003849","0.0000000000000","6886.319","94.785","517.783","498.585","PAYLOAD","LARGE","IND","2019-11-27","SRI",null,"3417035","202073536","0 CARTOSAT 3","1 44804U 19081A   22116.47869828  .00003849  00000-0  18554-3 0  9993","2 44804  97.4024 179.1089 0013939  43.0440  68.0390 15.19224923133745"
"2.0","GENERATED VIA SPACE-TRACK.ORG API","2022-04-26T23:36:12","18 SPCS","CARTOSAT 3","2019-081A","EARTH","TEME","UTC","SGP4","2022-04-26T19:28:18.816096","15.19227339","0.00139570","97.4021","179.4348","41.7911","87.3574","0","U","44804","999","13379","0.00018387000000","0.00003814","0.0000000000000","6886.311","94.785","517.788","498.565","PAYLOAD","LARGE","IND","2019-11-27","SRI",null,"3417064","202078902","0 CARTOSAT 3","1 44804U 19081A   22116.81132889  .00003814  00000-0  18387-3 0  9997","2 44804  97.4021 179.4348 0013957  41.7911  87.3574 15.19227339133798"
"2.0","GENERATED VIA SPACE-TRACK.ORG API","2022-04-27T04:10:22","18 SPCS","CARTOSAT 3","2019-081A","EARTH","TEME","UTC","SGP4","2022-04-26T22:49:29.112960","15.19228248","0.00139260","97.4022","179.5717","41.5265","131.1976","0","U","44804","999","13381","0.00018270000000","0.00003789","0.0000000000000","6886.309","94.785","517.764","498.584","PAYLOAD","LARGE","IND","2019-11-27","SRI",null,"3417474","202108448","0 CARTOSAT 3","1 44804U 19081A   22116.95103140  .00003789  00000-0  18270-3 0  9992","2 44804  97.4022 179.5717 0013926  41.5265 131.1976 15.19228248133813"
"2.0","GENERATED VIA SPACE-TRACK.ORG API","2022-04-27T06:26:12","18 SPCS","CARTOSAT 3","2019-081A","EARTH","TEME","UTC","SGP4","2022-04-27T03:10:08.306976","15.19230236","0.00138730","97.4023","179.7490","40.8423","41.2328","0","U","44804","999","13384","0.00018670000000","0.00003874","0.0000000000000","6886.303","94.785","517.721","498.614","PAYLOAD","LARGE","IND","2019-11-27","SRI",null,"3417488","202114591","0 CARTOSAT 3","1 44804U 19081A   22117.13204059  .00003874  00000-0  18670-3 0  9993","2 44804  97.4023 179.7490 0013873  40.8423  41.2328 15.19230236133848"
"2.0","GENERATED VIA SPACE-TRACK.ORG API","2022-04-27T14:16:12","18 SPCS","CARTOSAT 3","2019-081A","EARTH","TEME","UTC","SGP4","2022-04-27T11:11:23.398656","15.19233051","0.00138740","97.4022","180.0765","39.6575","69.0827","0","U","44804","999","13389","0.00018784000000","0.00003898","0.0000000000000","6886.294","94.785","517.713","498.605","PAYLOAD","LARGE","IND","2019-11-27","SRI",null,"3417995","202124974","0 CARTOSAT 3","1 44804U 19081A   22117.46624304  .00003898  00000-0  18784-3 0  9990","2 44804  97.4022 180.0765 0013874  39.6575  69.0827 15.19233051133897"
"2.0","GENERATED VIA SPACE-TRACK.ORG API","2022-04-27T19:21:46","18 SPCS","CARTOSAT 3","2019-081A","EARTH","TEME","UTC","SGP4","2022-04-27T14:20:59.005824","15.19234428","0.00138900","97.4021","180.2055","39.2471","69.1269","0","U","44804","999","13391","0.00018999000000","0.00003944","0.0000000000000","6886.290","94.785","517.720","498.590","PAYLOAD","LARGE","IND","2019-11-27","SRI",null,"3418497","202155732","0 CARTOSAT 3","1 44804U 19081A   22117.59790516  .00003944  00000-0  18999-3 0  9993","2 44804  97.4021 180.2055 0013890  39.2471  69.1269 15.19234428133912"
"2.0","GENERATED VIA SPACE-TRACK.ORG API","2022-04-27T22:16:12","18 SPCS","CARTOSAT 3","2019-081A","EARTH","TEME","UTC","SGP4","2022-04-27T20:41:50.147808","15.19236076","0.00138740","97.4022","180.4648","38.3136","75.6452","0","U","44804","999","13395","0.00018703000000","0.00003881","0.0000000000000","6886.285","94.784","517.704","498.596","PAYLOAD","LARGE","IND","2019-11-27","SRI",null,"3418524","202162021","0 CARTOSAT 3","1 44804U 19081A   22117.86238597  .00003881  00000-0  18703-3 0  9992","2 44804  97.4022 180.4648 0013874  38.3136  75.6452 15.19236076133954"
"2.0","GENERATED VIA SPACE-TRACK.ORG API","2022-04-28T06:16:12","18 SPCS","CARTOSAT 3","2019-081A","EARTH","TEME","UTC","SGP4","2022-04-28T01:20:43.780992","15.19237799","0.00138710","97.4021","180.6545","37.6213","54.9269","0","U","44804","999","13398","0.00018815000000","0.00003905","0.0000000000000","6886.280","94.784","517.697","498.593","PAYLOAD","LARGE","IND","2019-11-27","SRI",null,"3418950","202170526","0 CARTOSAT 3","1 44804U 19081A   22118.05606228  .00003905  00000-0  18815-3 0  9995","2 44804  97.4021 180.6545 0013871  37.6213  54.9269 15.19237799133988"
